STARLINK-36405          
1 67921U 26036T   26071.58335648 -.01959183  00000+0 -20718-1 0  9996
2 67921  42.9990 232.1555 0001314 278.9587 223.3335 15.66463840  4118
STARLINK-36383          
1 67922U 26036U   26071.60249935  .00384510  00000+0  17443-2 0  9998
2 67922  42.9976 231.7655 0002607 308.8055  51.2583 15.82069117  4130
STARLINK-36406          
1 67923U 26036V   26071.58335648 -.01949323  00000+0 -24634-1 0  9994
2 67923  42.9991 232.3030 0001492 280.4629 162.0164 15.62002384  4110
STARLINK-36714          
1 67924U 26036W   26071.58335648 -.01920464  00000+0 -13934-1 0  9991
2 67924  42.9988 231.9045 0001383 272.8589 329.8366 15.75780480  4118
STARLINK-36726          
1 67925U 26036X   26071.58335648 -.01955735  00000+0 -20876-1 0  9994
2 67925  42.9990 232.1195 0001228 278.7076 237.5499 15.66229426  4115
STARLINK-36758          
1 67926U 26036Y   26071.58335648 -.01954811  00000+0 -15545-1 0  9996
2 67926  42.9988 231.9238 0001364 267.7065 326.9798 15.73224365  4115
STARLINK-36728          
1 67927U 26036Z   26071.58335648 -.01923236  00000+0 -13419-1 0  9992
2 67927  42.9991 231.8502 0001378 265.5799 358.5846 15.76657961  4118
STARLINK-36771          
1 67928U 26036AA  26071.58335648 -.01918477  00000+0 -14473-1 0  9995
2 67928  42.9991 231.8844 0001430 265.7182 344.7069 15.74896683  4113
STARLINK-36809          
1 67929U 26036AB  26071.58335648 -.01922228  00000+0 -14489-1 0  9992
2 67929  42.9991 231.8623 0001399 265.7808 353.3370 15.74923964  4112
STARLINK-36865          
1 67930U 26036AC  26070.90128626  .00307168  00000+0  14033-2 0  9998
2 67930  42.9989 235.9642 0001705 284.8141  75.2541 15.82119378  4025
STARLINK-36781          
1 67931U 26036AD  26070.90204021  .00174753  00000+0  81424-3 0  9994
2 67931  42.9990 235.9718 0001984 261.7679  98.2968 15.82056264  4023
STARLINK-36301          
1 67932U 26037A   26071.54619949  .00334685  00000+0  15209-2 0  9995
2 67932  42.9975 181.0715 0001623 269.5672  90.5014 15.82161542  3701
