CCSDS_OMM_VERS = 2.0
CREATION_DATE  = 
ORIGINATOR     = 

OBJECT_NAME    = STARLINK-36405
OBJECT_ID      = 2026-036T
CENTER_NAME    = EARTH
REF_FRAME      = TEME
TIME_SYSTEM    = UTC
MEAN_ELEMENT_THEORY = SGP/SGP4

EPOCH          = 2026-03-12T14:00:01.999872
MEAN_MOTION    = 15.66463840
ECCENTRICITY   = .0001314
INCLINATION    = 42.9990
RA_OF_ASC_NODE = 232.1555
ARG_OF_PERICENTER = 278.9587
MEAN_ANOMALY   = 223.3335

EPHEMERIS_TYPE = 0
CLASSIFICATION_TYPE = U
NORAD_CAT_ID   = 67921
ELEMENT_SET_NO = 999
REV_AT_EPOCH   = 411
BSTAR          = -.20718222E-1
MEAN_MOTION_DOT = -.1959183E-1
MEAN_MOTION_DDOT = 0

CCSDS_OMM_VERS = 2.0
CREATION_DATE  = 
ORIGINATOR     = 

OBJECT_NAME    = STARLINK-36383
OBJECT_ID      = 2026-036U
CENTER_NAME    = EARTH
REF_FRAME      = TEME
TIME_SYSTEM    = UTC
MEAN_ELEMENT_THEORY = SGP/SGP4

EPOCH          = 2026-03-12T14:27:35.943840
MEAN_MOTION    = 15.82069117
ECCENTRICITY   = .00026075
INCLINATION    = 42.9976
RA_OF_ASC_NODE = 231.7655
ARG_OF_PERICENTER = 308.8055
MEAN_ANOMALY   = 51.2583

EPHEMERIS_TYPE = 0
CLASSIFICATION_TYPE = U
NORAD_CAT_ID   = 67922
ELEMENT_SET_NO = 999
REV_AT_EPOCH   = 413
BSTAR          = .1744327E-2
MEAN_MOTION_DOT = .38451E-2
MEAN_MOTION_DDOT = 0

CCSDS_OMM_VERS = 2.0
CREATION_DATE  = 
ORIGINATOR     = 

OBJECT_NAME    = STARLINK-36406
OBJECT_ID      = 2026-036V
CENTER_NAME    = EARTH
REF_FRAME      = TEME
TIME_SYSTEM    = UTC
MEAN_ELEMENT_THEORY = SGP/SGP4

EPOCH          = 2026-03-12T14:00:01.999872
MEAN_MOTION    = 15.62002384
ECCENTRICITY   = .00014927
INCLINATION    = 42.9991
RA_OF_ASC_NODE = 232.3030
ARG_OF_PERICENTER = 280.4629
MEAN_ANOMALY   = 162.0164

EPHEMERIS_TYPE = 0
CLASSIFICATION_TYPE = U
NORAD_CAT_ID   = 67923
ELEMENT_SET_NO = 999
REV_AT_EPOCH   = 411
BSTAR          = -.24633982E-1
MEAN_MOTION_DOT = -.1949323E-1
MEAN_MOTION_DDOT = 0

CCSDS_OMM_VERS = 2.0
CREATION_DATE  = 
ORIGINATOR     = 

OBJECT_NAME    = STARLINK-36714
OBJECT_ID      = 2026-036W
CENTER_NAME    = EARTH
REF_FRAME      = TEME
TIME_SYSTEM    = UTC
MEAN_ELEMENT_THEORY = SGP/SGP4

EPOCH          = 2026-03-12T14:00:01.999872
MEAN_MOTION    = 15.75780480
ECCENTRICITY   = .00013832
INCLINATION    = 42.9988
RA_OF_ASC_NODE = 231.9045
ARG_OF_PERICENTER = 272.8589
MEAN_ANOMALY   = 329.8366

EPHEMERIS_TYPE = 0
CLASSIFICATION_TYPE = U
NORAD_CAT_ID   = 67924
ELEMENT_SET_NO = 999
REV_AT_EPOCH   = 411
BSTAR          = -.13933731E-1
MEAN_MOTION_DOT = -.1920464E-1
MEAN_MOTION_DDOT = 0

CCSDS_OMM_VERS = 2.0
CREATION_DATE  = 
ORIGINATOR     = 

OBJECT_NAME    = STARLINK-36726
OBJECT_ID      = 2026-036X
CENTER_NAME    = EARTH
REF_FRAME      = TEME
TIME_SYSTEM    = UTC
MEAN_ELEMENT_THEORY = SGP/SGP4

EPOCH          = 2026-03-12T14:00:01.999872
MEAN_MOTION    = 15.66229426
ECCENTRICITY   = .00012285
INCLINATION    = 42.9990
RA_OF_ASC_NODE = 232.1195
ARG_OF_PERICENTER = 278.7076
MEAN_ANOMALY   = 237.5499

EPHEMERIS_TYPE = 0
CLASSIFICATION_TYPE = U
NORAD_CAT_ID   = 67925
ELEMENT_SET_NO = 999
REV_AT_EPOCH   = 411
BSTAR          = -.20876458E-1
MEAN_MOTION_DOT = -.1955735E-1
MEAN_MOTION_DDOT = 0

CCSDS_OMM_VERS = 2.0
CREATION_DATE  = 
ORIGINATOR     = 

OBJECT_NAME    = STARLINK-36758
OBJECT_ID      = 2026-036Y
CENTER_NAME    = EARTH
REF_FRAME      = TEME
TIME_SYSTEM    = UTC
MEAN_ELEMENT_THEORY = SGP/SGP4

EPOCH          = 2026-03-12T14:00:01.999872
MEAN_MOTION    = 15.73224365
ECCENTRICITY   = .00013642
INCLINATION    = 42.9988
RA_OF_ASC_NODE = 231.9238
ARG_OF_PERICENTER = 267.7065
MEAN_ANOMALY   = 326.9798

EPHEMERIS_TYPE = 0
CLASSIFICATION_TYPE = U
NORAD_CAT_ID   = 67926
ELEMENT_SET_NO = 999
REV_AT_EPOCH   = 411
BSTAR          = -.15545321E-1
MEAN_MOTION_DOT = -.1954811E-1
MEAN_MOTION_DDOT = 0

CCSDS_OMM_VERS = 2.0
CREATION_DATE  = 
ORIGINATOR     = 

OBJECT_NAME    = STARLINK-36728
OBJECT_ID      = 2026-036Z
CENTER_NAME    = EARTH
REF_FRAME      = TEME
TIME_SYSTEM    = UTC
MEAN_ELEMENT_THEORY = SGP/SGP4

EPOCH          = 2026-03-12T14:00:01.999872
MEAN_MOTION    = 15.76657961
ECCENTRICITY   = .00013787
INCLINATION    = 42.9991
RA_OF_ASC_NODE = 231.8502
ARG_OF_PERICENTER = 265.5799
MEAN_ANOMALY   = 358.5846

EPHEMERIS_TYPE = 0
CLASSIFICATION_TYPE = U
NORAD_CAT_ID   = 67927
ELEMENT_SET_NO = 999
REV_AT_EPOCH   = 411
BSTAR          = -.1341949E-1
MEAN_MOTION_DOT = -.1923236E-1
MEAN_MOTION_DDOT = 0

CCSDS_OMM_VERS = 2.0
CREATION_DATE  = 
ORIGINATOR     = 

OBJECT_NAME    = STARLINK-36771
OBJECT_ID      = 2026-036AA
CENTER_NAME    = EARTH
REF_FRAME      = TEME
TIME_SYSTEM    = UTC
MEAN_ELEMENT_THEORY = SGP/SGP4

EPOCH          = 2026-03-12T14:00:01.999872
MEAN_MOTION    = 15.74896683
ECCENTRICITY   = .000143
INCLINATION    = 42.9991
RA_OF_ASC_NODE = 231.8844
ARG_OF_PERICENTER = 265.7182
MEAN_ANOMALY   = 344.7069

EPHEMERIS_TYPE = 0
CLASSIFICATION_TYPE = U
NORAD_CAT_ID   = 67928
ELEMENT_SET_NO = 999
REV_AT_EPOCH   = 411
BSTAR          = -.14473442E-1
MEAN_MOTION_DOT = -.1918477E-1
MEAN_MOTION_DDOT = 0

CCSDS_OMM_VERS = 2.0
CREATION_DATE  = 
ORIGINATOR     = 

OBJECT_NAME    = STARLINK-36809
OBJECT_ID      = 2026-036AB
CENTER_NAME    = EARTH
REF_FRAME      = TEME
TIME_SYSTEM    = UTC
MEAN_ELEMENT_THEORY = SGP/SGP4

EPOCH          = 2026-03-12T14:00:01.999872
MEAN_MOTION    = 15.74923964
ECCENTRICITY   = .00013996
INCLINATION    = 42.9991
RA_OF_ASC_NODE = 231.8623
ARG_OF_PERICENTER = 265.7808
MEAN_ANOMALY   = 353.3370

EPHEMERIS_TYPE = 0
CLASSIFICATION_TYPE = U
NORAD_CAT_ID   = 67929
ELEMENT_SET_NO = 999
REV_AT_EPOCH   = 411
BSTAR          = -.14488994E-1
MEAN_MOTION_DOT = -.1922228E-1
MEAN_MOTION_DDOT = 0

CCSDS_OMM_VERS = 2.0
CREATION_DATE  = 
ORIGINATOR     = 

OBJECT_NAME    = STARLINK-36865
OBJECT_ID      = 2026-036AC
CENTER_NAME    = EARTH
REF_FRAME      = TEME
TIME_SYSTEM    = UTC
MEAN_ELEMENT_THEORY = SGP/SGP4

EPOCH          = 2026-03-11T21:37:51.132864
MEAN_MOTION    = 15.82119378
ECCENTRICITY   = .0001705
INCLINATION    = 42.9989
RA_OF_ASC_NODE = 235.9642
ARG_OF_PERICENTER = 284.8141
MEAN_ANOMALY   = 75.2541

EPHEMERIS_TYPE = 0
CLASSIFICATION_TYPE = U
NORAD_CAT_ID   = 67930
ELEMENT_SET_NO = 999
REV_AT_EPOCH   = 402
BSTAR          = .14033E-2
MEAN_MOTION_DOT = .307168E-2
MEAN_MOTION_DDOT = 0

CCSDS_OMM_VERS = 2.0
CREATION_DATE  = 
ORIGINATOR     = 

OBJECT_NAME    = STARLINK-36781
OBJECT_ID      = 2026-036AD
CENTER_NAME    = EARTH
REF_FRAME      = TEME
TIME_SYSTEM    = UTC
MEAN_ELEMENT_THEORY = SGP/SGP4

EPOCH          = 2026-03-11T21:38:56.274144
MEAN_MOTION    = 15.82056264
ECCENTRICITY   = .0001984
INCLINATION    = 42.9990
RA_OF_ASC_NODE = 235.9718
ARG_OF_PERICENTER = 261.7679
MEAN_ANOMALY   = 98.2968

EPHEMERIS_TYPE = 0
CLASSIFICATION_TYPE = U
NORAD_CAT_ID   = 67931
ELEMENT_SET_NO = 999
REV_AT_EPOCH   = 402
BSTAR          = .81424E-3
MEAN_MOTION_DOT = .174753E-2
MEAN_MOTION_DDOT = 0

CCSDS_OMM_VERS = 2.0
CREATION_DATE  = 
ORIGINATOR     = 

OBJECT_NAME    = STARLINK-36301
OBJECT_ID      = 2026-037A
CENTER_NAME    = EARTH
REF_FRAME      = TEME
TIME_SYSTEM    = UTC
MEAN_ELEMENT_THEORY = SGP/SGP4

EPOCH          = 2026-03-12T13:06:31.635936
MEAN_MOTION    = 15.82161542
ECCENTRICITY   = .00016233
INCLINATION    = 42.9975
RA_OF_ASC_NODE = 181.0715
ARG_OF_PERICENTER = 269.5672
MEAN_ANOMALY   = 90.5014

EPHEMERIS_TYPE = 0
CLASSIFICATION_TYPE = U
NORAD_CAT_ID   = 67932
ELEMENT_SET_NO = 999
REV_AT_EPOCH   = 370
BSTAR          = .15209349E-2
MEAN_MOTION_DOT = .334685E-2
MEAN_MOTION_DDOT = 0

